ONEWEB-0412             
1 50489U 21132W   24046.78343404  .00000073  00000+0  15341-3 0  9990
2 50489  87.9244 145.1072 0002395 109.5577 250.5814 13.18684992109315
ONEWEB-0413             
1 50490U 21132X   24047.01580531  .00000354  00000+0  86459-3 0  9993
2 50490  87.9241 145.0747 0002294 110.6647 249.4732 13.18683000110576
ONEWEB-0414             
1 50491U 21132Y   24047.53271588  .00000091  00000+0  19844-3 0  9992
2 50491  87.9239 144.9557 0002158 113.5658 246.5701 13.18684991110679
ONEWEB-0417             
1 50492U 21132Z   24046.78184806  .00000067  00000+0  13831-3 0  9998
2 50492  87.9245 145.0986 0001616 117.1374 242.9923 13.18684728109265
ONEWEB-0418             
1 50493U 21132AA  24046.79528162  .00000033  00000+0  51661-4 0  9994
2 50493  87.9240 145.1056 0001589 125.7401 234.3879 13.18684333109329
ONEWEB-0419             
1 50494U 21132AB  24046.80872470  .00000054  00000+0  10411-3 0  9991
2 50494  87.9237 145.1228 0001417 111.9590 248.1693 13.18684834109247
ONEWEB-0420             
1 50495U 21132AC  24046.77553041  .00000044  00000+0  78512-4 0  9994
2 50495  87.9239 145.1378 0002064  98.4022 261.7344 13.18685555109238
ONEWEB-0421             
1 50496U 21132AD  24046.76921079  .00000089  00000+0  19261-3 0  9998
2 50496  87.9247 145.0955 0002246 112.4428 247.6942 13.18684930109274
